NORAD_CAT_ID,OBJECT_NAME,OBJECT_TYPE,EPOCH,MEAN_MOTION,ECCENTRICITY,INCLINATION,RA_OF_ASC_NODE,ARG_OF_PERICENTER,MEAN_ANOMALY,BSTAR,MEAN_MOTION_DOT,MEAN_MOTION_DDOT,TLE_LINE0,TLE_LINE1,TLE_LINE2,SEMIMAJOR_AXIS,PERIOD,APOGEE,PERIGEE,DECAYED
54084.0,STARLINK-5183,PAYLOAD,2023-08-23 02:01:45,15.08839116,0.0001251,53.2167,187.396,92.2906,267.823,1.659e-05,-2.4e-07,0.0,0 STARLINK-5183,1 54084U 22136AK  23235.08455097 -.00000024  00000-0  16590-4 0  9990,2 54084  53.2167 187.3960 0001251  92.2906 267.8230 15.08839116 47122,6917.883,95.438,540.614,538.883,0.0
54084.0,STARLINK-5183,PAYLOAD,2023-08-24 20:57:10,15.08834964,0.0001192,53.2167,179.3686,88.8397,271.2732,1.4031e-05,-6.5e-07,0.0,0 STARLINK-5183,1 54084U 22136AK  23236.87303711 -.00000065  00000-0  14031-4 0  9996,2 54084  53.2167 179.3686 0001192  88.8397 271.2732 15.08834964 46915,6917.896,95.438,540.585,538.936,0.0
54084.0,STARLINK-5183,PAYLOAD,2023-08-25 00:07:56,15.08835873,0.0001197,53.2172,178.7743,94.9945,265.1183,7.7889e-06,-1.64e-06,0.0,0 STARLINK-5183,1 54084U 22136AK  23237.00551684 -.00000164  00000-0  77889-5 0  9997,2 54084  53.2172 178.7743 0001197  94.9945 265.1183 15.08835873 47418,6917.893,95.438,540.586,538.93,0.0
54084.0,STARLINK-5183,PAYLOAD,2023-08-25 19:12:34,15.08838461,0.0001128,53.2175,175.2064,100.5202,259.5917,2.7221e-05,1.45e-06,0.0,0 STARLINK-5183,1 54084U 22136AK  23237.80039728  .00000145  00000-0  27221-4 0  9997,2 54084  53.2175 175.2064 0001128 100.5202 259.5917 15.08838461 47051,6917.885,95.438,540.53,538.97,0.0
54084.0,STARLINK-5183,PAYLOAD,2023-08-26 06:20:15,15.08844045,0.0001326,53.2166,173.1232,115.6596,244.4533,9.5561e-05,1.233e-05,0.0,0 STARLINK-5183,1 54084U 22136AK  23238.26407151  .00001233  00000-0  95561-4 0  9998,2 54084  53.2166 173.1232 0001326 115.6596 244.4533 15.08844045 47601,6917.868,95.437,540.65,538.816,0.0
54084.0,STARLINK-5183,PAYLOAD,2023-08-27 01:24:54,15.08833855,0.0001203,53.2176,169.5542,95.8002,264.3128,5.4515e-05,5.8e-06,0.0,0 STARLINK-5183,1 54084U 22136AK  23239.05896150  .00000580  00000-0  54515-4 0  9995,2 54084  53.2176 169.5542 0001203  95.8002 264.3128 15.08833855 47721,6917.899,95.438,540.596,538.932,0.0
54084.0,STARLINK-5183,PAYLOAD,2023-08-27 06:11:03,15.08841587,0.0001455,53.2178,168.663,99.4364,260.6792,0.00013637,1.883e-05,0.0,0 STARLINK-5183,1 54084U 22136AK  23239.25767441  .00001883  00000-0  13637-3 0  9993,2 54084  53.2178 168.6630 0001455  99.4364 260.6792 15.08841587 47751,6917.876,95.437,540.747,538.734,0.0
54084.0,STARLINK-5183,PAYLOAD,2023-08-28 01:15:41,15.0884008,0.00013,53.2171,165.0964,75.9689,284.1448,4.1318e-05,3.7e-06,0.0,0 STARLINK-5183,1 54084U 22136AK  23240.05255876  .00000370  00000-0  41318-4 0  9995,2 54084  53.2171 165.0964 0001300  75.9689 284.1448 15.08840080 47872,6917.88,95.438,540.644,538.846,0.0
54084.0,STARLINK-5183,PAYLOAD,2023-08-28 04:26:26,15.08848698,0.0001361,53.2175,164.4981,87.595,272.5198,6.7893e-05,7.93e-06,0.0,0 STARLINK-5183,1 54084U 22136AK  23240.18503220  .00000793  00000-0  67893-4 0  9993,2 54084  53.2175 164.4981 0001361  87.5950 272.5198 15.08848698 47893,6917.854,95.437,540.66,538.777,0.0
54084.0,STARLINK-5183,PAYLOAD,2023-08-28 12:23:22,15.0884212,0.0001385,53.2174,163.0129,83.6507,276.4643,-1.0098e-05,-4.49e-06,0.0,0 STARLINK-5183,1 54084U 22136AK  23240.51623719 -.00000449  00000-0 -10098-4 0  9991,2 54084  53.2174 163.0129 0001385  83.6507 276.4643 15.08842120 47940,6917.874,95.437,540.697,538.781,0.0
54084.0,STARLINK-5183,PAYLOAD,2023-08-29 12:14:09,15.08840673,0.0001329,53.2168,158.5524,88.2357,271.8787,-3.9495e-05,-9.16e-06,0.0,0 STARLINK-5183,1 54084U 22136AK  23241.50983763 -.00000916  00000-0 -39495-4 0  9990,2 54084  53.2168 158.5524 0001329  88.2357 271.8787 15.08840673 47616,6917.878,95.438,540.663,538.824,0.0
54084.0,STARLINK-5183,PAYLOAD,2023-08-30 00:57:15,15.08840363,0.0001436,53.2175,156.1746,93.8349,266.2807,-5.7514e-05,-1.203e-05,0.0,0 STARLINK-5183,1 54084U 22136AK  23242.03976113 -.00001203  00000-0 -57514-4 0  9992,2 54084  53.2175 156.1746 0001436  93.8349 266.2807 15.08840363 48175,6917.879,95.438,540.738,538.751,0.0
54084.0,STARLINK-5183,PAYLOAD,2023-08-30 04:08:01,15.08843385,0.0001413,53.2174,155.5789,98.5723,261.5429,-3.0498e-05,-7.73e-06,0.0,0 STARLINK-5183,1 54084U 22136AK  23242.17223774 -.00000773  00000-0 -30498-4 0  9998,2 54084  53.2174 155.5789 0001413  98.5723 261.5429 15.08843385 47711,6917.87,95.437,540.713,538.758,0.0
54084.0,STARLINK-5183,PAYLOAD,2023-08-31 00:48:02,15.08835047,0.0001252,53.2156,151.7142,88.4307,271.6829,-3.3751e-06,-3.42e-06,0.0,0 STARLINK-5183,1 54084U 22136AK  23243.03336373 -.00000342  00000-0 -33751-5 0  9992,2 54084  53.2156 151.7142 0001252  88.4307 271.6829 15.08835047 47845,6917.896,95.438,540.627,538.894,0.0
54084.0,STARLINK-5183,PAYLOAD,2023-09-01 00:38:49,15.08835887,9.95e-05,53.216,147.2542,91.9084,268.2022,8.0906e-05,1e-05,0.0,0 STARLINK-5183,1 54084U 22136AK  23244.02696229  .00001000  00000-0  80906-4 0  9994,2 54084  53.2160 147.2542 0000995  91.9084 268.2022 15.08835887 48477,6917.893,95.438,540.446,539.07,0.0
54084.0,STARLINK-5183,PAYLOAD,2023-09-01 10:11:08,15.08836862,0.0001318,53.217,145.4683,96.2127,263.9016,2.1267e-05,5.1e-07,0.0,0 STARLINK-5183,1 54084U 22136AK  23244.42440377  .00000051  00000-0  21267-4 0  9999,2 54084  53.2170 145.4683 0001318  96.2127 263.9016 15.08836862 48053,6917.89,95.438,540.667,538.843,0.0
54084.0,STARLINK-5183,PAYLOAD,2023-09-02 02:04:59,15.08845792,0.000118,53.2162,142.495,84.4191,275.6936,0.00010833,1.437e-05,0.0,0 STARLINK-5183,1 54084U 22136AK  23245.08679596  .00001437  00000-0  10833-3 0  9994,2 54084  53.2162 142.4950 0001180  84.4191 275.6936 15.08845792 48632,6917.863,95.437,540.544,538.911,0.0
54084.0,STARLINK-5183,PAYLOAD,2023-09-02 10:01:55,15.0884074,0.0001252,53.2162,141.0068,79.9785,280.1349,4.3553e-05,4.05e-06,0.0,0 STARLINK-5183,1 54084U 22136AK  23245.41800065  .00000405  00000-0  43553-4 0  9998,2 54084  53.2162 141.0068 0001252  79.9785 280.1349 15.08840740 48687,6917.878,95.438,540.609,538.877,0.0
54084.0,STARLINK-5183,PAYLOAD,2023-09-02 19:34:14,15.0883736,0.0001754,53.2175,139.2266,90.5332,269.5861,-4.6074e-05,-1.021e-05,0.0,0 STARLINK-5183,1 54084U 22136AK  23245.81544879 -.00001021  00000-0 -46074-4 0  9998,2 54084  53.2175 139.2266 0001754  90.5332 269.5861 15.08837360 48262,6917.888,95.438,540.967,538.54,0.0
54084.0,STARLINK-5183,PAYLOAD,2023-09-03 01:55:47,15.08836899,0.0001434,53.2167,138.0363,83.5722,276.5433,-3.9418e-05,-9.15e-06,0.0,0 STARLINK-5183,1 54084U 22136AK  23246.08040884 -.00000915  00000-0 -39418-4 0  9990,2 54084  53.2167 138.0363 0001434  83.5722 276.5433 15.08836899 48784,6917.89,95.438,540.747,538.763,0.0
54084.0,STARLINK-5183,PAYLOAD,2023-09-03 09:52:43,15.08837078,0.0001273,53.2167,136.5483,86.5701,273.5437,-5.746e-05,-1.202e-05,0.0,0 STARLINK-5183,1 54084U 22136AK  23246.41160914 -.00001202  00000-0 -57460-4 0  9991,2 54084  53.2167 136.5483 0001273  86.5701 273.5437 15.08837078 48355,6917.889,95.438,540.635,538.874,0.0
54084.0,STARLINK-5183,PAYLOAD,2023-09-04 09:43:29,15.08838241,0.0001669,53.2177,132.0894,87.1033,273.015,5.6621e-05,6.13e-06,0.0,0 STARLINK-5183,1 54084U 22136AK  23247.40520817  .00000613  00000-0  56621-4 0  9994,2 54084  53.2177 132.0894 0001669  87.1033 273.0150 15.08838241 48986,6917.886,95.438,540.905,538.596,0.0
54084.0,STARLINK-5183,PAYLOAD,2023-09-05 01:37:20,15.08843715,0.0001473,53.2174,129.1151,88.1014,272.0147,0.00011615,1.561e-05,0.0,0 STARLINK-5183,1 54084U 22136AK  23248.06760302  .00001561  00000-0  11615-3 0  9998,2 54084  53.2174 129.1151 0001473  88.1014 272.0147 15.08843715 49088,6917.869,95.437,540.753,538.715,0.0
54084.0,STARLINK-5183,PAYLOAD,2023-09-06 03:04:15,15.08369523,0.0001436,53.2172,124.3588,78.7074,281.4079,-0.0035884,-0.00056226,0.0,0 STARLINK-5183,1 54084U 22136AK  23249.12795416 -.00056226  00000-0 -35884-2 0  9993,2 54084  53.2172 124.3588 0001436  78.7074 281.4079 15.08369523 49243,6919.319,95.467,542.177,540.19,0.0
54084.0,STARLINK-5183,PAYLOAD,2023-09-06 04:39:44,15.08314002,0.0001647,53.2178,124.0635,68.3808,291.736,-0.0039849,-0.00062261,0.0,0 STARLINK-5183,1 54084U 22136AK  23249.19426628 -.00062261  00000-0 -39849-2 0  9997,2 54084  53.2178 124.0635 0001647  68.3808 291.7360 15.08314002 49253,6919.489,95.471,542.493,540.214,0.0
54084.0,STARLINK-5183,PAYLOAD,2023-09-06 22:09:23,15.08242454,0.0001999,53.2184,120.795,53.7009,306.4168,-0.0038436,-0.00059967,0.0,0 STARLINK-5183,1 54084U 22136AK  23249.92319237 -.00059967  00000-0 -38436-2 0  9995,2 54084  53.2184 120.7950 0001999  53.7009 306.4168 15.08242454 48883,6919.707,95.475,542.956,540.189,0.0
54084.0,STARLINK-5183,PAYLOAD,2023-09-07 14:00:01,15.07091575,0.0001504,53.2158,117.8369,95.8998,247.7003,0.029125,0.00467335,0.0,0 STARLINK-5183,1 54084U 22136AK  23250.58334491  .00467335  00000-0  29125-1 0  9992,2 54084  53.2158 117.8369 0001504  95.8998 247.7003 15.07091575 49466,6923.23,95.548,546.136,544.054,0.0
54084.0,STARLINK-5183,PAYLOAD,2023-09-07 22:00:00,15.07385408,0.0001483,53.2158,116.3459,87.9039,265.3678,0.031195,0.00507012,0.0,0 STARLINK-5183,1 54084U 22136AK  23250.91667824  .00507012  00000-0  31195-1 0  9995,2 54084  53.2158 116.3459 0001483  87.9039 265.3678 15.07385408  5865,6922.33,95.53,545.222,543.168,0.0
54084.0,STARLINK-5183,PAYLOAD,2023-09-08 06:00:02,15.077313,0.0001577,53.2156,114.852,89.3297,274.0397,0.028609,0.00467047,0.0,0 STARLINK-5183,1 54084U 22136AK  23251.25002315  .00467047  00000-0  28609-1 0  9990,2 54084  53.2156 114.8520 0001577  89.3297 274.0397 15.07731300 49567,6921.271,95.508,544.228,542.045,0.0
54084.0,STARLINK-5183,PAYLOAD,2023-09-08 14:00:01,15.08025411,0.0001592,53.216,113.3569,98.1896,275.5582,0.032819,0.00545284,0.0,0 STARLINK-5183,1 54084U 22136AK  23251.58334491  .00545284  00000-0  32819-1 0  9997,2 54084  53.2160 113.3569 0001592  98.1896 275.5582 15.08025411  5811,6920.371,95.489,543.338,541.135,0.0
